CCSDS_OMM_VERS = 2.0
CREATION_DATE  = 
ORIGINATOR     = 

OBJECT_NAME    = STARLINK-35668
OBJECT_ID      = 2025-257X
CENTER_NAME    = EARTH
REF_FRAME      = TEME
TIME_SYSTEM    = UTC
MEAN_ELEMENT_THEORY = SGP/SGP4

EPOCH          = 2025-11-18T16:00:05.000256
MEAN_MOTION    = 15.87153112
ECCENTRICITY   = .0001275
INCLINATION    = 53.1532
RA_OF_ASC_NODE = 20.4651
ARG_OF_PERICENTER = 52.3556
MEAN_ANOMALY   = 61.1618

EPHEMERIS_TYPE = 0
CLASSIFICATION_TYPE = U
NORAD_CAT_ID   = 66401
ELEMENT_SET_NO = 999
REV_AT_EPOCH   = 262
BSTAR          = -.70978E-2
MEAN_MOTION_DOT = -.1650945E-1
MEAN_MOTION_DDOT = 0

CCSDS_OMM_VERS = 2.0
CREATION_DATE  = 
ORIGINATOR     = 

OBJECT_NAME    = STARLINK-35644
OBJECT_ID      = 2025-257Y
CENTER_NAME    = EARTH
REF_FRAME      = TEME
TIME_SYSTEM    = UTC
MEAN_ELEMENT_THEORY = SGP/SGP4

EPOCH          = 2025-11-18T16:00:05.000256
MEAN_MOTION    = 15.87119572
ECCENTRICITY   = .0001106
INCLINATION    = 53.1533
RA_OF_ASC_NODE = 20.4744
ARG_OF_PERICENTER = 50.9474
MEAN_ANOMALY   = 58.1182

EPHEMERIS_TYPE = 0
CLASSIFICATION_TYPE = U
NORAD_CAT_ID   = 66402
ELEMENT_SET_NO = 999
REV_AT_EPOCH   = 262
BSTAR          = -.70067E-2
MEAN_MOTION_DOT = -.1629945E-1
MEAN_MOTION_DDOT = 0

CCSDS_OMM_VERS = 2.0
CREATION_DATE  = 
ORIGINATOR     = 

OBJECT_NAME    = STARLINK-35602
OBJECT_ID      = 2025-257Z
CENTER_NAME    = EARTH
REF_FRAME      = TEME
TIME_SYSTEM    = UTC
MEAN_ELEMENT_THEORY = SGP/SGP4

EPOCH          = 2025-11-18T16:00:05.000256
MEAN_MOTION    = 15.87188603
ECCENTRICITY   = .0001112
INCLINATION    = 53.1532
RA_OF_ASC_NODE = 20.4617
ARG_OF_PERICENTER = 51.4343
MEAN_ANOMALY   = 63.7186

EPHEMERIS_TYPE = 0
CLASSIFICATION_TYPE = U
NORAD_CAT_ID   = 66403
ELEMENT_SET_NO = 999
REV_AT_EPOCH   = 262
BSTAR          = -.7098E-2
MEAN_MOTION_DOT = -.1653383E-1
MEAN_MOTION_DDOT = 0

CCSDS_OMM_VERS = 2.0
CREATION_DATE  = 
ORIGINATOR     = 

OBJECT_NAME    = STARLINK-35691
OBJECT_ID      = 2025-257AA
CENTER_NAME    = EARTH
REF_FRAME      = TEME
TIME_SYSTEM    = UTC
MEAN_ELEMENT_THEORY = SGP/SGP4

EPOCH          = 2025-11-18T16:00:05.000256
MEAN_MOTION    = 15.87196997
ECCENTRICITY   = .0001146
INCLINATION    = 53.1532
RA_OF_ASC_NODE = 20.4568
ARG_OF_PERICENTER = 52.7649
MEAN_ANOMALY   = 64.7892

EPHEMERIS_TYPE = 0
CLASSIFICATION_TYPE = U
NORAD_CAT_ID   = 66404
ELEMENT_SET_NO = 999
REV_AT_EPOCH   = 262
BSTAR          = -.71365E-2
MEAN_MOTION_DOT = -.1661824E-1
MEAN_MOTION_DDOT = 0

CCSDS_OMM_VERS = 2.0
CREATION_DATE  = 
ORIGINATOR     = 

OBJECT_NAME    = STARLINK-35683
OBJECT_ID      = 2025-257AB
CENTER_NAME    = EARTH
REF_FRAME      = TEME
TIME_SYSTEM    = UTC
MEAN_ELEMENT_THEORY = SGP/SGP4

EPOCH          = 2025-11-18T16:00:05.000256
MEAN_MOTION    = 15.87204378
ECCENTRICITY   = .0001156
INCLINATION    = 53.1530
RA_OF_ASC_NODE = 20.4513
ARG_OF_PERICENTER = 53.8055
MEAN_ANOMALY   = 66.2739

EPHEMERIS_TYPE = 0
CLASSIFICATION_TYPE = U
NORAD_CAT_ID   = 66405
ELEMENT_SET_NO = 999
REV_AT_EPOCH   = 246
BSTAR          = -.72006E-2
MEAN_MOTION_DOT = -.1675305E-1
MEAN_MOTION_DDOT = 0

CCSDS_OMM_VERS = 2.0
CREATION_DATE  = 
ORIGINATOR     = 

OBJECT_NAME    = STARLINK-34840
OBJECT_ID      = 2025-257AC
CENTER_NAME    = EARTH
REF_FRAME      = TEME
TIME_SYSTEM    = UTC
MEAN_ELEMENT_THEORY = SGP/SGP4

EPOCH          = 2025-11-18T16:00:05.000256
MEAN_MOTION    = 15.87240223
ECCENTRICITY   = .00011958
INCLINATION    = 53.1529
RA_OF_ASC_NODE = 20.4367
ARG_OF_PERICENTER = 58.0516
MEAN_ANOMALY   = 69.0699

EPHEMERIS_TYPE = 0
CLASSIFICATION_TYPE = U
NORAD_CAT_ID   = 66406
ELEMENT_SET_NO = 999
REV_AT_EPOCH   = 256
BSTAR          = -.73324489E-2
MEAN_MOTION_DOT = -.1704523E-1
MEAN_MOTION_DDOT = 0

CCSDS_OMM_VERS = 2.0
CREATION_DATE  = 
ORIGINATOR     = 

OBJECT_NAME    = STARLINK-35686
OBJECT_ID      = 2025-257AD
CENTER_NAME    = EARTH
REF_FRAME      = TEME
TIME_SYSTEM    = UTC
MEAN_ELEMENT_THEORY = SGP/SGP4

EPOCH          = 2025-11-18T16:00:05.000256
MEAN_MOTION    = 15.87224771
ECCENTRICITY   = .0001155
INCLINATION    = 53.1534
RA_OF_ASC_NODE = 20.4470
ARG_OF_PERICENTER = 55.5842
MEAN_ANOMALY   = 66.5426

EPHEMERIS_TYPE = 0
CLASSIFICATION_TYPE = U
NORAD_CAT_ID   = 66407
ELEMENT_SET_NO = 999
REV_AT_EPOCH   = 262
BSTAR          = -.72177E-2
MEAN_MOTION_DOT = -.1680234E-1
MEAN_MOTION_DDOT = 0

CCSDS_OMM_VERS = 2.0
CREATION_DATE  = 
ORIGINATOR     = 

OBJECT_NAME    = STARLINK-35679
OBJECT_ID      = 2025-257AE
CENTER_NAME    = EARTH
REF_FRAME      = TEME
TIME_SYSTEM    = UTC
MEAN_ELEMENT_THEORY = SGP/SGP4

EPOCH          = 2025-11-18T16:00:05.000256
MEAN_MOTION    = 15.87225683
ECCENTRICITY   = .0001198
INCLINATION    = 53.1534
RA_OF_ASC_NODE = 20.4419
ARG_OF_PERICENTER = 54.2423
MEAN_ANOMALY   = 70.4886

EPHEMERIS_TYPE = 0
CLASSIFICATION_TYPE = U
NORAD_CAT_ID   = 66408
ELEMENT_SET_NO = 999
REV_AT_EPOCH   = 262
BSTAR          = -.7267E-2
MEAN_MOTION_DOT = -.1690297E-1
MEAN_MOTION_DDOT = 0

CCSDS_OMM_VERS = 2.0
CREATION_DATE  = 
ORIGINATOR     = 

OBJECT_NAME    = CHUTIAN-2 A
OBJECT_ID      = 2025-256A
CENTER_NAME    = EARTH
REF_FRAME      = TEME
TIME_SYSTEM    = UTC
MEAN_ELEMENT_THEORY = SGP/SGP4

EPOCH          = 2025-11-18T17:03:13.804416
MEAN_MOTION    = 14.50667584
ECCENTRICITY   = .00133636
INCLINATION    = 98.2818
RA_OF_ASC_NODE = 27.8935
ARG_OF_PERICENTER = 257.4696
MEAN_ANOMALY   = 102.5004

EPHEMERIS_TYPE = 0
CLASSIFICATION_TYPE = U
NORAD_CAT_ID   = 66409
ELEMENT_SET_NO = 999
REV_AT_EPOCH   = 139
BSTAR          = .33645304E-4
MEAN_MOTION_DOT = .88E-6
MEAN_MOTION_DDOT = 0

CCSDS_OMM_VERS = 2.0
CREATION_DATE  = 
ORIGINATOR     = 

OBJECT_NAME    = CHUTIAN-2 B
OBJECT_ID      = 2025-256B
CENTER_NAME    = EARTH
REF_FRAME      = TEME
TIME_SYSTEM    = UTC
MEAN_ELEMENT_THEORY = SGP/SGP4

EPOCH          = 2025-11-18T21:59:40.239744
MEAN_MOTION    = 14.50978633
ECCENTRICITY   = .00126835
INCLINATION    = 98.2824
RA_OF_ASC_NODE = 28.1024
ARG_OF_PERICENTER = 257.7304
MEAN_ANOMALY   = 102.2471

EPHEMERIS_TYPE = 0
CLASSIFICATION_TYPE = U
NORAD_CAT_ID   = 66410
ELEMENT_SET_NO = 999
REV_AT_EPOCH   = 142
BSTAR          = .2262512E-3
MEAN_MOTION_DOT = .851E-5
MEAN_MOTION_DDOT = 0

CCSDS_OMM_VERS = 2.0
CREATION_DATE  = 
ORIGINATOR     = 

OBJECT_NAME    = HULIANWANG DIGUI 13A
OBJECT_ID      = 2025-258A
CENTER_NAME    = EARTH
REF_FRAME      = TEME
TIME_SYSTEM    = UTC
MEAN_ELEMENT_THEORY = SGP/SGP4

EPOCH          = 2025-11-18T10:14:38.118912
MEAN_MOTION    = 14.25710024
ECCENTRICITY   = .0013837
INCLINATION    = 50.0052
RA_OF_ASC_NODE = 4.3617
ARG_OF_PERICENTER = 273.6220
MEAN_ANOMALY   = 86.3111

EPHEMERIS_TYPE = 0
CLASSIFICATION_TYPE = U
NORAD_CAT_ID   = 66412
ELEMENT_SET_NO = 999
REV_AT_EPOCH   = 119
BSTAR          = .46160842E-4
MEAN_MOTION_DOT = -.5E-6
MEAN_MOTION_DDOT = 0

